LEGION 1                
1 59625U 24081A   26202.20215644  .00002366  00000+0  12357-3 0  9995
2 59625  97.5006 279.6986 0007867 244.7940 115.2478 15.16869375122690
LEGION 2                
1 59626U 24081B   26202.23262970  .00002811  00000+0  14617-3 0  9999
2 59626  97.5003 279.8256 0010702 210.3787 149.6827 15.16848228122705
LEGION 3                
1 60452U 24146A   26202.20245811  .00001816  00000+0  10745-3 0  9994
2 60452  45.0013 208.1884 0007605   7.1906 352.9081 15.15677275107185
LEGION 4                
1 60453U 24146B   26202.26798574  .00002949  00000+0  16571-3 0  9991
2 60453  45.0021 299.7043 0009384 151.0769 209.0632 15.15708574106045
LEGION 5                
1 62900U 25025A   26202.13616009  .00002445  00000+0  13967-3 0  9992
2 62900  45.0013 119.3685 0007749 319.7490  40.2814 15.15726515 79648
LEGION 6                
1 62901U 25025B   26201.93761235  .00002520  00000+0  14353-3 0  9996
2 62901  45.0022  29.5800 0010612 305.7491  54.2400 15.15714741 80757
